<?xml version="1.0" encoding="UTF-8"?>
<ndm xmlns:xsi="http://www.w3.org/2001/XMLSchema-instance" xsi:noNamespaceSchemaLocation="https://sanaregistry.org/r/ndmxml_unqualified/ndmxml-2.0.0-master-2.0.xsd">
<omm id="CCSDS_OMM_VERS" version="2.0">
<header><CREATION_DATE/><ORIGINATOR/></header><body><segment><metadata><OBJECT_NAME>IRIDIUM 26</OBJECT_NAME><OBJECT_ID>1997-043A</OBJECT_ID><CENTER_NAME>EARTH</CENTER_NAME><REF_FRAME>TEME</REF_FRAME><TIME_SYSTEM>UTC</TIME_SYSTEM><MEAN_ELEMENT_THEORY>SGP4</MEAN_ELEMENT_THEORY></metadata><data><meanElements><EPOCH>2025-10-07T11:46:35.008608</EPOCH><MEAN_MOTION>14.37241222</MEAN_MOTION><ECCENTRICITY>.0002307</ECCENTRICITY><INCLINATION>86.3931</INCLINATION><RA_OF_ASC_NODE>63.3987</RA_OF_ASC_NODE><ARG_OF_PERICENTER>89.2020</ARG_OF_PERICENTER><MEAN_ANOMALY>270.9442</MEAN_ANOMALY></meanElements><tleParameters><EPHEMERIS_TYPE>0</EPHEMERIS_TYPE><CLASSIFICATION_TYPE>U</CLASSIFICATION_TYPE><NORAD_CAT_ID>24903</NORAD_CAT_ID><ELEMENT_SET_NO>999</ELEMENT_SET_NO><REV_AT_EPOCH>47287</REV_AT_EPOCH><BSTAR>.21893457E-3</BSTAR><MEAN_MOTION_DOT>.671E-5</MEAN_MOTION_DOT><MEAN_MOTION_DDOT>0</MEAN_MOTION_DDOT></tleParameters></data></segment></body></omm>
<omm id="CCSDS_OMM_VERS" version="2.0">
<header><CREATION_DATE/><ORIGINATOR/></header><body><segment><metadata><OBJECT_NAME>IRIDIUM 22</OBJECT_NAME><OBJECT_ID>1997-043E</OBJECT_ID><CENTER_NAME>EARTH</CENTER_NAME><REF_FRAME>TEME</REF_FRAME><TIME_SYSTEM>UTC</TIME_SYSTEM><MEAN_ELEMENT_THEORY>SGP4</MEAN_ELEMENT_THEORY></metadata><data><meanElements><EPOCH>2025-10-07T20:41:19.106880</EPOCH><MEAN_MOTION>14.36043708</MEAN_MOTION><ECCENTRICITY>.000214</ECCENTRICITY><INCLINATION>86.3929</INCLINATION><RA_OF_ASC_NODE>66.8809</RA_OF_ASC_NODE><ARG_OF_PERICENTER>87.5110</ARG_OF_PERICENTER><MEAN_ANOMALY>272.6332</MEAN_ANOMALY></meanElements><tleParameters><EPHEMERIS_TYPE>0</EPHEMERIS_TYPE><CLASSIFICATION_TYPE>U</CLASSIFICATION_TYPE><NORAD_CAT_ID>24907</NORAD_CAT_ID><ELEMENT_SET_NO>999</ELEMENT_SET_NO><REV_AT_EPOCH>47294</REV_AT_EPOCH><BSTAR>.20144E-3</BSTAR><MEAN_MOTION_DOT>.605E-5</MEAN_MOTION_DOT><MEAN_MOTION_DDOT>0</MEAN_MOTION_DDOT></tleParameters></data></segment></body></omm>
<omm id="CCSDS_OMM_VERS" version="2.0">
<header><CREATION_DATE/><ORIGINATOR/></header><body><segment><metadata><OBJECT_NAME>DUMMY MASS 1</OBJECT_NAME><OBJECT_ID>1997-048A</OBJECT_ID><CENTER_NAME>EARTH</CENTER_NAME><REF_FRAME>TEME</REF_FRAME><TIME_SYSTEM>UTC</TIME_SYSTEM><MEAN_ELEMENT_THEORY>SGP4</MEAN_ELEMENT_THEORY></metadata><data><meanElements><EPOCH>2025-10-07T20:43:30.478080</EPOCH><MEAN_MOTION>14.87087497</MEAN_MOTION><ECCENTRICITY>.0008893</ECCENTRICITY><INCLINATION>86.3295</INCLINATION><RA_OF_ASC_NODE>83.1933</RA_OF_ASC_NODE><ARG_OF_PERICENTER>102.4333</ARG_OF_PERICENTER><MEAN_ANOMALY>257.7887</MEAN_ANOMALY></meanElements><tleParameters><EPHEMERIS_TYPE>0</EPHEMERIS_TYPE><CLASSIFICATION_TYPE>U</CLASSIFICATION_TYPE><NORAD_CAT_ID>24925</NORAD_CAT_ID><ELEMENT_SET_NO>999</ELEMENT_SET_NO><REV_AT_EPOCH>52187</REV_AT_EPOCH><BSTAR>.77161E-4</BSTAR><MEAN_MOTION_DOT>.721E-5</MEAN_MOTION_DOT><MEAN_MOTION_DDOT>0</MEAN_MOTION_DDOT></tleParameters></data></segment></body></omm>
<omm id="CCSDS_OMM_VERS" version="2.0">
<header><CREATION_DATE/><ORIGINATOR/></header><body><segment><metadata><OBJECT_NAME>DUMMY MASS 2</OBJECT_NAME><OBJECT_ID>1997-048B</OBJECT_ID><CENTER_NAME>EARTH</CENTER_NAME><REF_FRAME>TEME</REF_FRAME><TIME_SYSTEM>UTC</TIME_SYSTEM><MEAN_ELEMENT_THEORY>SGP4</MEAN_ELEMENT_THEORY></metadata><data><meanElements><EPOCH>2025-10-07T12:11:29.646528</EPOCH><MEAN_MOTION>14.86837949</MEAN_MOTION><ECCENTRICITY>.00095188</ECCENTRICITY><INCLINATION>86.3293</INCLINATION><RA_OF_ASC_NODE>84.9878</RA_OF_ASC_NODE><ARG_OF_PERICENTER>112.8228</ARG_OF_PERICENTER><MEAN_ANOMALY>247.4003</MEAN_ANOMALY></meanElements><tleParameters><EPHEMERIS_TYPE>0</EPHEMERIS_TYPE><CLASSIFICATION_TYPE>U</CLASSIFICATION_TYPE><NORAD_CAT_ID>24926</NORAD_CAT_ID><ELEMENT_SET_NO>999</ELEMENT_SET_NO><REV_AT_EPOCH>52159</REV_AT_EPOCH><BSTAR>.78013605E-4</BSTAR><MEAN_MOTION_DOT>.724E-5</MEAN_MOTION_DOT><MEAN_MOTION_DDOT>0</MEAN_MOTION_DDOT></tleParameters></data></segment></body></omm>
<omm id="CCSDS_OMM_VERS" version="2.0">
<header><CREATION_DATE/><ORIGINATOR/></header><body><segment><metadata><OBJECT_NAME>IRIDIUM 29</OBJECT_NAME><OBJECT_ID>1997-051A</OBJECT_ID><CENTER_NAME>EARTH</CENTER_NAME><REF_FRAME>TEME</REF_FRAME><TIME_SYSTEM>UTC</TIME_SYSTEM><MEAN_ELEMENT_THEORY>SGP4</MEAN_ELEMENT_THEORY></metadata><data><meanElements><EPOCH>2025-10-07T11:54:30.675168</EPOCH><MEAN_MOTION>14.36565598</MEAN_MOTION><ECCENTRICITY>.00019128</ECCENTRICITY><INCLINATION>86.3896</INCLINATION><RA_OF_ASC_NODE>96.7671</RA_OF_ASC_NODE><ARG_OF_PERICENTER>88.0314</ARG_OF_PERICENTER><MEAN_ANOMALY>272.1102</MEAN_ANOMALY></meanElements><tleParameters><EPHEMERIS_TYPE>0</EPHEMERIS_TYPE><CLASSIFICATION_TYPE>U</CLASSIFICATION_TYPE><NORAD_CAT_ID>24944</NORAD_CAT_ID><ELEMENT_SET_NO>999</ELEMENT_SET_NO><REV_AT_EPOCH>46939</REV_AT_EPOCH><BSTAR>.22602205E-3</BSTAR><MEAN_MOTION_DOT>.683E-5</MEAN_MOTION_DOT><MEAN_MOTION_DDOT>0</MEAN_MOTION_DDOT></tleParameters></data></segment></body></omm>
<omm id="CCSDS_OMM_VERS" version="2.0">
<header><CREATION_DATE/><ORIGINATOR/></header><body><segment><metadata><OBJECT_NAME>IRIDIUM 33</OBJECT_NAME><OBJECT_ID>1997-051C</OBJECT_ID><CENTER_NAME>EARTH</CENTER_NAME><REF_FRAME>TEME</REF_FRAME><TIME_SYSTEM>UTC</TIME_SYSTEM><MEAN_ELEMENT_THEORY>SGP4</MEAN_ELEMENT_THEORY></metadata><data><meanElements><EPOCH>2025-10-07T11:06:04.303584</EPOCH><MEAN_MOTION>14.34963713</MEAN_MOTION><ECCENTRICITY>.0009919</ECCENTRICITY><INCLINATION>86.3813</INCLINATION><RA_OF_ASC_NODE>96.0512</RA_OF_ASC_NODE><ARG_OF_PERICENTER>75.6203</ARG_OF_PERICENTER><MEAN_ANOMALY>284.6093</MEAN_ANOMALY></meanElements><tleParameters><EPHEMERIS_TYPE>0</EPHEMERIS_TYPE><CLASSIFICATION_TYPE>U</CLASSIFICATION_TYPE><NORAD_CAT_ID>24946</NORAD_CAT_ID><ELEMENT_SET_NO>999</ELEMENT_SET_NO><REV_AT_EPOCH>46884</REV_AT_EPOCH><BSTAR>.16669377E-3</BSTAR><MEAN_MOTION_DOT>.494E-5</MEAN_MOTION_DOT><MEAN_MOTION_DDOT>0</MEAN_MOTION_DDOT></tleParameters></data></segment></body></omm>
<omm id="CCSDS_OMM_VERS" version="2.0">
<header><CREATION_DATE/><ORIGINATOR/></header><body><segment><metadata><OBJECT_NAME>IRIDIUM 28</OBJECT_NAME><OBJECT_ID>1997-051E</OBJECT_ID><CENTER_NAME>EARTH</CENTER_NAME><REF_FRAME>TEME</REF_FRAME><TIME_SYSTEM>UTC</TIME_SYSTEM><MEAN_ELEMENT_THEORY>SGP4</MEAN_ELEMENT_THEORY></metadata><data><meanElements><EPOCH>2025-10-07T11:14:27.968064</EPOCH><MEAN_MOTION>14.37471837</MEAN_MOTION><ECCENTRICITY>.0002657</ECCENTRICITY><INCLINATION>86.3902</INCLINATION><RA_OF_ASC_NODE>94.2281</RA_OF_ASC_NODE><ARG_OF_PERICENTER>86.1213</ARG_OF_PERICENTER><MEAN_ANOMALY>274.0288</MEAN_ANOMALY></meanElements><tleParameters><EPHEMERIS_TYPE>0</EPHEMERIS_TYPE><CLASSIFICATION_TYPE>U</CLASSIFICATION_TYPE><NORAD_CAT_ID>24948</NORAD_CAT_ID><ELEMENT_SET_NO>999</ELEMENT_SET_NO><REV_AT_EPOCH>46997</REV_AT_EPOCH><BSTAR>.21288988E-3</BSTAR><MEAN_MOTION_DOT>.656E-5</MEAN_MOTION_DOT><MEAN_MOTION_DDOT>0</MEAN_MOTION_DDOT></tleParameters></data></segment></body></omm>
<omm id="CCSDS_OMM_VERS" version="2.0">
<header><CREATION_DATE/><ORIGINATOR/></header><body><segment><metadata><OBJECT_NAME>IRIDIUM 36</OBJECT_NAME><OBJECT_ID>1997-056C</OBJECT_ID><CENTER_NAME>EARTH</CENTER_NAME><REF_FRAME>TEME</REF_FRAME><TIME_SYSTEM>UTC</TIME_SYSTEM><MEAN_ELEMENT_THEORY>SGP4</MEAN_ELEMENT_THEORY></metadata><data><meanElements><EPOCH>2025-10-07T11:36:26.220384</EPOCH><MEAN_MOTION>14.37696186</MEAN_MOTION><ECCENTRICITY>.00022694</ECCENTRICITY><INCLINATION>86.3943</INCLINATION><RA_OF_ASC_NODE>125.8529</RA_OF_ASC_NODE><ARG_OF_PERICENTER>81.4671</ARG_OF_PERICENTER><MEAN_ANOMALY>278.6784</MEAN_ANOMALY></meanElements><tleParameters><EPHEMERIS_TYPE>0</EPHEMERIS_TYPE><CLASSIFICATION_TYPE>U</CLASSIFICATION_TYPE><NORAD_CAT_ID>24967</NORAD_CAT_ID><ELEMENT_SET_NO>999</ELEMENT_SET_NO><REV_AT_EPOCH>46835</REV_AT_EPOCH><BSTAR>.1668601E-3</BSTAR><MEAN_MOTION_DOT>.521E-5</MEAN_MOTION_DOT><MEAN_MOTION_DDOT>0</MEAN_MOTION_DDOT></tleParameters></data></segment></body></omm>

</ndm>
